[{"OBJECT_NAME":"NORSAT 3","OBJECT_ID":"2021-034E","EPOCH":"2026-03-09T22:23:32.431200","MEAN_MOTION":15.04338407,"ECCENTRICITY":0.0005858,"INCLINATION":97.5427,"RA_OF_ASC_NODE":128.5959,"ARG_OF_PERICENTER":280.8366,"MEAN_ANOMALY":79.2201,"EPHEMERIS_TYPE":0,"CLASSIFICATION_TYPE":"U","NORAD_CAT_ID":48272,"ELEMENT_SET_NO":999,"REV_AT_EPOCH":26491,"BSTAR":0.00030361478,"MEAN_MOTION_DOT":4.174e-5,"MEAN_MOTION_DDOT":0},{"OBJECT_NAME":"STARLINK-5576","OBJECT_ID":"2023-013BD","EPOCH":"2026-03-08T16:42:38.652480","MEAN_MOTION":15.02539135,"ECCENTRICITY":0.00012251,"INCLINATION":43.0045,"RA_OF_ASC_NODE":318.4067,"ARG_OF_PERICENTER":265.3874,"MEAN_ANOMALY":94.6829,"EPHEMERIS_TYPE":0,"CLASSIFICATION_TYPE":"U","NORAD_CAT_ID":55382,"ELEMENT_SET_NO":999,"REV_AT_EPOCH":17141,"BSTAR":5.6539268e-5,"MEAN_MOTION_DOT":5.6e-6,"MEAN_MOTION_DDOT":0}]
